CCSDS_OMM_VERS = 2.0
CREATION_DATE  = 
ORIGINATOR     = 

OBJECT_NAME    = ATLAS CENTAUR R/B
OBJECT_ID      = 1972-065B
CENTER_NAME    = EARTH
REF_FRAME      = TEME
TIME_SYSTEM    = UTC
MEAN_ELEMENT_THEORY = SGP/SGP4

EPOCH          = 2026-03-30T15:19:37.970688
MEAN_MOTION    = 14.77748004
ECCENTRICITY   = .00335399
INCLINATION    = 35.0007
RA_OF_ASC_NODE = 182.9778
ARG_OF_PERICENTER = 187.6068
MEAN_ANOMALY   = 172.4126

EPHEMERIS_TYPE = 0
CLASSIFICATION_TYPE = U
NORAD_CAT_ID   = 6155
ELEMENT_SET_NO = 999
REV_AT_EPOCH   = 84436
BSTAR          = .24030069E-3
MEAN_MOTION_DOT = .1745E-4
MEAN_MOTION_DDOT = 0

CCSDS_OMM_VERS = 2.0
CREATION_DATE  = 
ORIGINATOR     = 

OBJECT_NAME    = SL-8 R/B
OBJECT_ID      = 1975-112B
CENTER_NAME    = EARTH
REF_FRAME      = TEME
TIME_SYSTEM    = UTC
MEAN_ELEMENT_THEORY = SGP/SGP4

EPOCH          = 2026-03-30T22:15:13.986144
MEAN_MOTION    = 14.38215799
ECCENTRICITY   = .00145849
INCLINATION    = 74.0628
RA_OF_ASC_NODE = 339.8480
ARG_OF_PERICENTER = 64.3428
MEAN_ANOMALY   = 295.9231

EPHEMERIS_TYPE = 0
CLASSIFICATION_TYPE = U
NORAD_CAT_ID   = 8459
ELEMENT_SET_NO = 999
REV_AT_EPOCH   = 63492
BSTAR          = .9334129E-4
MEAN_MOTION_DOT = .258E-5
MEAN_MOTION_DDOT = 0

CCSDS_OMM_VERS = 2.0
CREATION_DATE  = 
ORIGINATOR     = 

OBJECT_NAME    = SL-3 R/B
OBJECT_ID      = 1977-057B
CENTER_NAME    = EARTH
REF_FRAME      = TEME
TIME_SYSTEM    = UTC
MEAN_ELEMENT_THEORY = SGP/SGP4

EPOCH          = 2026-03-30T22:50:23.311680
MEAN_MOTION    = 15.46110222
ECCENTRICITY   = .00068971
INCLINATION    = 97.5793
RA_OF_ASC_NODE = 262.8220
ARG_OF_PERICENTER = 197.5157
MEAN_ANOMALY   = 162.5855

EPHEMERIS_TYPE = 0
CLASSIFICATION_TYPE = U
NORAD_CAT_ID   = 10114
ELEMENT_SET_NO = 999
REV_AT_EPOCH   = 67161
BSTAR          = .38327156E-3
MEAN_MOTION_DOT = .18708E-3
MEAN_MOTION_DDOT = 0

CCSDS_OMM_VERS = 2.0
CREATION_DATE  = 
ORIGINATOR     = 

OBJECT_NAME    = SEASAT 1
OBJECT_ID      = 1978-064A
CENTER_NAME    = EARTH
REF_FRAME      = TEME
TIME_SYSTEM    = UTC
MEAN_ELEMENT_THEORY = SGP/SGP4

EPOCH          = 2026-03-30T22:32:42.096768
MEAN_MOTION    = 14.46178015
ECCENTRICITY   = .00026739
INCLINATION    = 108.0072
RA_OF_ASC_NODE = 170.0861
ARG_OF_PERICENTER = 275.2671
MEAN_ANOMALY   = 84.8170

EPHEMERIS_TYPE = 0
CLASSIFICATION_TYPE = U
NORAD_CAT_ID   = 10967
ELEMENT_SET_NO = 999
REV_AT_EPOCH   = 50958
BSTAR          = .13723214E-3
MEAN_MOTION_DOT = .354E-5
MEAN_MOTION_DDOT = 0

CCSDS_OMM_VERS = 2.0
CREATION_DATE  = 
ORIGINATOR     = 

OBJECT_NAME    = SL-14 R/B
OBJECT_ID      = 1979-011B
CENTER_NAME    = EARTH
REF_FRAME      = TEME
TIME_SYSTEM    = UTC
MEAN_ELEMENT_THEORY = SGP/SGP4

EPOCH          = 2026-03-30T21:48:15.611328
MEAN_MOTION    = 14.91936588
ECCENTRICITY   = .00157496
INCLINATION    = 82.5212
RA_OF_ASC_NODE = 76.4296
ARG_OF_PERICENTER = 352.6057
MEAN_ANOMALY   = 7.4928

EPHEMERIS_TYPE = 0
CLASSIFICATION_TYPE = U
NORAD_CAT_ID   = 11267
ELEMENT_SET_NO = 999
REV_AT_EPOCH   = 53194
BSTAR          = .85407853E-4
MEAN_MOTION_DOT = .891E-5
MEAN_MOTION_DDOT = 0

CCSDS_OMM_VERS = 2.0
CREATION_DATE  = 
ORIGINATOR     = 

OBJECT_NAME    = SL-8 R/B
OBJECT_ID      = 1979-089B
CENTER_NAME    = EARTH
REF_FRAME      = TEME
TIME_SYSTEM    = UTC
MEAN_ELEMENT_THEORY = SGP/SGP4

EPOCH          = 2026-03-30T08:17:02.510016
MEAN_MOTION    = 14.42364009
ECCENTRICITY   = .0016705
INCLINATION    = 74.0690
RA_OF_ASC_NODE = 52.8043
ARG_OF_PERICENTER = 222.7959
MEAN_ANOMALY   = 137.1898

EPHEMERIS_TYPE = 0
CLASSIFICATION_TYPE = U
NORAD_CAT_ID   = 11574
ELEMENT_SET_NO = 999
REV_AT_EPOCH   = 43908
BSTAR          = .13802644E-3
MEAN_MOTION_DOT = .43E-5
MEAN_MOTION_DDOT = 0

CCSDS_OMM_VERS = 2.0
CREATION_DATE  = 
ORIGINATOR     = 

OBJECT_NAME    = SL-14 R/B
OBJECT_ID      = 1980-005B
CENTER_NAME    = EARTH
REF_FRAME      = TEME
TIME_SYSTEM    = UTC
MEAN_ELEMENT_THEORY = SGP/SGP4

EPOCH          = 2026-03-30T22:27:08.874432
MEAN_MOTION    = 14.90954926
ECCENTRICITY   = .00172507
INCLINATION    = 82.5111
RA_OF_ASC_NODE = 287.0777
ARG_OF_PERICENTER = 92.4413
MEAN_ANOMALY   = 267.8781

EPHEMERIS_TYPE = 0
CLASSIFICATION_TYPE = U
NORAD_CAT_ID   = 11672
ELEMENT_SET_NO = 999
REV_AT_EPOCH   = 47965
BSTAR          = .73707454E-4
MEAN_MOTION_DOT = .755E-5
MEAN_MOTION_DDOT = 0

CCSDS_OMM_VERS = 2.0
CREATION_DATE  = 
ORIGINATOR     = 

OBJECT_NAME    = SL-8 R/B
OBJECT_ID      = 1981-003B
CENTER_NAME    = EARTH
REF_FRAME      = TEME
TIME_SYSTEM    = UTC
MEAN_ELEMENT_THEORY = SGP/SGP4

EPOCH          = 2026-03-30T18:56:58.929216
MEAN_MOTION    = 15.11922692
ECCENTRICITY   = .02606171
INCLINATION    = 82.9324
RA_OF_ASC_NODE = 270.4978
ARG_OF_PERICENTER = 105.2687
MEAN_ANOMALY   = 257.7515

EPHEMERIS_TYPE = 0
CLASSIFICATION_TYPE = U
NORAD_CAT_ID   = 12139
ELEMENT_SET_NO = 999
REV_AT_EPOCH   = 31786
BSTAR          = .73388018E-3
MEAN_MOTION_DOT = .29378E-3
MEAN_MOTION_DDOT = 0

CCSDS_OMM_VERS = 2.0
CREATION_DATE  = 
ORIGINATOR     = 

OBJECT_NAME    = SL-3 R/B
OBJECT_ID      = 1981-046B
CENTER_NAME    = EARTH
REF_FRAME      = TEME
TIME_SYSTEM    = UTC
MEAN_ELEMENT_THEORY = SGP/SGP4

EPOCH          = 2026-03-30T22:27:12.987936
MEAN_MOTION    = 15.42522615
ECCENTRICITY   = .00181532
INCLINATION    = 81.2280
RA_OF_ASC_NODE = 264.2173
ARG_OF_PERICENTER = 306.8418
MEAN_ANOMALY   = 53.1160

EPHEMERIS_TYPE = 0
CLASSIFICATION_TYPE = U
NORAD_CAT_ID   = 12465
ELEMENT_SET_NO = 999
REV_AT_EPOCH   = 44170
BSTAR          = .36589168E-3
MEAN_MOTION_DOT = .16003E-3
MEAN_MOTION_DDOT = 0

CCSDS_OMM_VERS = 2.0
CREATION_DATE  = 
ORIGINATOR     = 

OBJECT_NAME    = SL-3 R/B
OBJECT_ID      = 1981-103B
CENTER_NAME    = EARTH
REF_FRAME      = TEME
TIME_SYSTEM    = UTC
MEAN_ELEMENT_THEORY = SGP/SGP4

EPOCH          = 2026-03-30T21:11:19.038336
MEAN_MOTION    = 15.21630061
ECCENTRICITY   = .00128591
INCLINATION    = 81.1613
RA_OF_ASC_NODE = 188.5711
ARG_OF_PERICENTER = 210.5842
MEAN_ANOMALY   = 149.4641

EPHEMERIS_TYPE = 0
CLASSIFICATION_TYPE = U
NORAD_CAT_ID   = 12904
ELEMENT_SET_NO = 999
REV_AT_EPOCH   = 97645
BSTAR          = .3535439E-3
MEAN_MOTION_DOT = .8027E-4
MEAN_MOTION_DDOT = 0

CCSDS_OMM_VERS = 2.0
CREATION_DATE  = 
ORIGINATOR     = 

OBJECT_NAME    = SL-3 R/B
OBJECT_ID      = 1982-013B
CENTER_NAME    = EARTH
REF_FRAME      = TEME
TIME_SYSTEM    = UTC
MEAN_ELEMENT_THEORY = SGP/SGP4

EPOCH          = 2026-03-30T21:10:44.576832
MEAN_MOTION    = 15.22205534
ECCENTRICITY   = .00236151
INCLINATION    = 81.1732
RA_OF_ASC_NODE = 135.9290
ARG_OF_PERICENTER = 107.9952
MEAN_ANOMALY   = 252.3857

EPHEMERIS_TYPE = 0
CLASSIFICATION_TYPE = U
NORAD_CAT_ID   = 13068
ELEMENT_SET_NO = 999
REV_AT_EPOCH   = 40757
BSTAR          = .23829508E-3
MEAN_MOTION_DOT = .554E-4
MEAN_MOTION_DDOT = 0

CCSDS_OMM_VERS = 2.0
CREATION_DATE  = 
ORIGINATOR     = 

OBJECT_NAME    = SL-3 R/B
OBJECT_ID      = 1982-039B
CENTER_NAME    = EARTH
REF_FRAME      = TEME
TIME_SYSTEM    = UTC
MEAN_ELEMENT_THEORY = SGP/SGP4

EPOCH          = 2026-03-30T20:38:06.364896
MEAN_MOTION    = 15.10201279
ECCENTRICITY   = .00284766
INCLINATION    = 81.1567
RA_OF_ASC_NODE = 191.5513
ARG_OF_PERICENTER = 254.2433
MEAN_ANOMALY   = 105.5651

EPHEMERIS_TYPE = 0
CLASSIFICATION_TYPE = U
NORAD_CAT_ID   = 13154
ELEMENT_SET_NO = 999
REV_AT_EPOCH   = 38483
BSTAR          = .2277595E-3
MEAN_MOTION_DOT = .3778E-4
MEAN_MOTION_DDOT = 0

