ATLAS CENTAUR R/B       
1 06155U 72065B   26089.63863392  .00001745  00000+0  24030-3 0  9990
2 06155  35.0007 182.9778 0033539 187.6068 172.4126 14.77748004844365
SL-8 R/B                
1 08459U 75112B   26089.92724521  .00000258  00000+0  93341-4 0  9997
2 08459  74.0628 339.8480 0014584  64.3428 295.9231 14.38215799634923
SL-3 R/B                
1 10114U 77057B   26089.95165870  .00018708  00000+0  38327-3 0  9998
2 10114  97.5793 262.8220 0006897 197.5157 162.5855 15.46110222671613
SEASAT 1                
1 10967U 78064A   26089.93937612  .00000354  00000+0  13723-3 0  9993
2 10967 108.0072 170.0861 0002673 275.2671  84.8170 14.46178015509586
SL-14 R/B               
1 11267U 79011B   26089.90851402  .00000891  00000+0  85408-4 0  9995
2 11267  82.5212  76.4296 0015749 352.6057   7.4928 14.91936588531943
SL-8 R/B                
1 11574U 79089B   26089.34516794  .00000430  00000+0  13803-3 0  9999
2 11574  74.0690  52.8043 0016705 222.7959 137.1898 14.42364009439087
SL-14 R/B               
1 11672U 80005B   26089.93551938  .00000755  00000+0  73707-4 0  9992
2 11672  82.5111 287.0777 0017250  92.4413 267.8781 14.90954926479652
SL-8 R/B                
1 12139U 81003B   26089.78957094  .00029378  00000+0  73388-3 0  9992
2 12139  82.9324 270.4978 0260617 105.2687 257.7515 15.11922692317869
SL-3 R/B                
1 12465U 81046B   26089.93556699  .00016003  00000+0  36589-3 0  9997
2 12465  81.2280 264.2173 0018153 306.8418  53.1160 15.42522615441709
SL-3 R/B                
1 12904U 81103B   26089.88285924  .00008027  00000+0  35354-3 0  9999
2 12904  81.1613 188.5711 0012859 210.5842 149.4641 15.21630061976451
SL-3 R/B                
1 13068U 82013B   26089.88246038  .00005540  00000+0  23830-3 0  9998
2 13068  81.1732 135.9290 0023615 107.9952 252.3857 15.22205534407575
SL-3 R/B                
1 13154U 82039B   26089.85979589  .00003778  00000+0  22776-3 0  9992
2 13154  81.1567 191.5513 0028476 254.2433 105.5651 15.10201279384836
